GLOBALSTAR M045         
1 25676U 99019A   26014.50276598 -.00000093  00000+0  53975-5 0  9995
2 25676  51.9977  62.9693 0000330 164.1558 343.9647 12.27070879219334
GLOBALSTAR M019         
1 25677U 99019B   26014.55180151 -.00000162  00000+0 -75503-3 0  9997
2 25677  51.9850 208.0720 0002196  56.6244 341.5987 12.13881231210810
GLOBALSTAR M044         
1 25678U 99019C   26014.46017983 -.00000058  00000+0  36000-3 0  9992
2 25678  51.9937 186.1148 0007233  87.8286 297.9810 11.90264086196488
GLOBALSTAR M042         
1 25679U 99019D   26014.48247748 -.00000065  00000+0  25291-3 0  9997
2 25679  51.9990 174.4551 0003281  36.6404   1.0755 12.22096063211090
GLOBALSTAR M025         
1 25770U 99031A   26014.45305789 -.00000056  00000+0  34293-3 0  9992
2 25770  51.9842  29.8563 0002350 135.3031  14.3923 11.22560614505438
GLOBALSTAR M049         
1 25771U 99031B   26014.48029233 -.00000112  00000+0 -16243-2 0  9991
2 25771  51.9886  75.1743 0002600  25.7626 334.3300 11.12123977140931
GLOBALSTAR M047         
1 25772U 99031C   26014.38077108 -.00000067  00000+0  70585-4 0  9994
2 25772  51.9846  52.1920 0016234 264.3809  95.5145 11.31931961495029
GLOBALSTAR M052         
1 25773U 99031D   26014.41894664 -.00000058  00000+0  25463-3 0  9997
2 25773  51.9831 181.0172 0003367 140.9098 237.9798 11.15063654502074
